[{"OBJECT_NAME":"INMARSAT 4-F2 (SOUTHPAN/PRN 122)","OBJECT_ID":"2005-044A","EPOCH":"2026-03-02T19:01:46.149600","MEAN_MOTION":1.00272087,"ECCENTRICITY":0.000254,"INCLINATION":4.9557,"RA_OF_ASC_NODE":43.806,"ARG_OF_PERICENTER":316.1233,"MEAN_ANOMALY":229.5729,"EPHEMERIS_TYPE":0,"CLASSIFICATION_TYPE":"U","NORAD_CAT_ID":28899,"ELEMENT_SET_NO":999,"REV_AT_EPOCH":7445,"BSTAR":0,"MEAN_MOTION_DOT":-2.74e-6,"MEAN_MOTION_DDOT":0},{"OBJECT_NAME":"GSAT-8 (GAGAN/PRN 127)","OBJECT_ID":"2011-022A","EPOCH":"2026-03-02T19:44:38.776128","MEAN_MOTION":1.00271553,"ECCENTRICITY":0.0007489,"INCLINATION":1.8562,"RA_OF_ASC_NODE":83.1786,"ARG_OF_PERICENTER":214.1713,"MEAN_ANOMALY":214.4485,"EPHEMERIS_TYPE":0,"CLASSIFICATION_TYPE":"U","NORAD_CAT_ID":37605,"ELEMENT_SET_NO":999,"REV_AT_EPOCH":5215,"BSTAR":0,"MEAN_MOTION_DOT":6.9e-7,"MEAN_MOTION_DDOT":0},{"OBJECT_NAME":"LUCH 5A (SDCM/PRN 140)","OBJECT_ID":"2011-074B","EPOCH":"2026-03-02T15:19:48.687744","MEAN_MOTION":1.00275091,"ECCENTRICITY":0.0004065,"INCLINATION":8.4827,"RA_OF_ASC_NODE":75.3733,"ARG_OF_PERICENTER":242.161,"MEAN_ANOMALY":239.901,"EPHEMERIS_TYPE":0,"CLASSIFICATION_TYPE":"U","NORAD_CAT_ID":37951,"ELEMENT_SET_NO":999,"REV_AT_EPOCH":5198,"BSTAR":0,"MEAN_MOTION_DOT":-6.1e-7,"MEAN_MOTION_DDOT":0},{"OBJECT_NAME":"SES-5 (EGNOS/PRN 136)","OBJECT_ID":"2012-036A","EPOCH":"2026-03-02T09:26:38.658336","MEAN_MOTION":1.00272505,"ECCENTRICITY":0.00019182,"INCLINATION":0.0626,"RA_OF_ASC_NODE":307.8056,"ARG_OF_PERICENTER":23.5348,"MEAN_ANOMALY":335.4588,"EPHEMERIS_TYPE":0,"CLASSIFICATION_TYPE":"U","NORAD_CAT_ID":38652,"ELEMENT_SET_NO":999,"REV_AT_EPOCH":4338,"BSTAR":0,"MEAN_MOTION_DOT":1.6e-7,"MEAN_MOTION_DDOT":0},{"OBJECT_NAME":"GSAT-10 (GAGAN/PRN 128)","OBJECT_ID":"2012-051B","EPOCH":"2026-03-02T15:48:26.553024","MEAN_MOTION":1.00273321,"ECCENTRICITY":0.0004067,"INCLINATION":0.0778,"RA_OF_ASC_NODE":264.2169,"ARG_OF_PERICENTER":175.2565,"MEAN_ANOMALY":41.0193,"EPHEMERIS_TYPE":0,"CLASSIFICATION_TYPE":"U","NORAD_CAT_ID":38779,"ELEMENT_SET_NO":999,"REV_AT_EPOCH":4903,"BSTAR":0,"MEAN_MOTION_DOT":-1.81e-6,"MEAN_MOTION_DDOT":0},{"OBJECT_NAME":"LUCH 5B (SDCM/PRN 125)","OBJECT_ID":"2012-061A","EPOCH":"2026-03-02T17:27:37.259712","MEAN_MOTION":1.00271515,"ECCENTRICITY":0.000447,"INCLINATION":10.2549,"RA_OF_ASC_NODE":50.9204,"ARG_OF_PERICENTER":222.087,"MEAN_ANOMALY":133.0852,"EPHEMERIS_TYPE":0,"CLASSIFICATION_TYPE":"U","NORAD_CAT_ID":38977,"ELEMENT_SET_NO":999,"REV_AT_EPOCH":4853,"BSTAR":0,"MEAN_MOTION_DOT":-1.49e-6,"MEAN_MOTION_DDOT":0},{"OBJECT_NAME":"ASTRA 5B (EGNOS/PRN 123)","OBJECT_ID":"2014-011B","EPOCH":"2026-03-02T17:38:58.671456","MEAN_MOTION":1.00269973,"ECCENTRICITY":0.0004235,"INCLINATION":0.0946,"RA_OF_ASC_NODE":297.1233,"ARG_OF_PERICENTER":25.8038,"MEAN_ANOMALY":125.8034,"EPHEMERIS_TYPE":0,"CLASSIFICATION_TYPE":"U","NORAD_CAT_ID":39617,"ELEMENT_SET_NO":999,"REV_AT_EPOCH":4360,"BSTAR":0,"MEAN_MOTION_DOT":1.2e-6,"MEAN_MOTION_DDOT":0},{"OBJECT_NAME":"LUCH 5V (SDCM/PRN 141)","OBJECT_ID":"2014-023A","EPOCH":"2026-03-02T21:40:13.094112","MEAN_MOTION":1.00272214,"ECCENTRICITY":0.0002944,"INCLINATION":4.871,"RA_OF_ASC_NODE":70.7871,"ARG_OF_PERICENTER":275.0606,"MEAN_ANOMALY":234.6092,"EPHEMERIS_TYPE":0,"CLASSIFICATION_TYPE":"U","NORAD_CAT_ID":39727,"ELEMENT_SET_NO":999,"REV_AT_EPOCH":4329,"BSTAR":0,"MEAN_MOTION_DOT":-2.82e-6,"MEAN_MOTION_DDOT":0},{"OBJECT_NAME":"GSAT-15 (GAGAN/PRN 139)","OBJECT_ID":"2015-065A","EPOCH":"2026-03-02T20:19:43.157856","MEAN_MOTION":1.00269365,"ECCENTRICITY":7.59e-5,"INCLINATION":0.0934,"RA_OF_ASC_NODE":270.0651,"ARG_OF_PERICENTER":82.9322,"MEAN_ANOMALY":206.0286,"EPHEMERIS_TYPE":0,"CLASSIFICATION_TYPE":"U","NORAD_CAT_ID":41028,"ELEMENT_SET_NO":999,"REV_AT_EPOCH":3773,"BSTAR":0,"MEAN_MOTION_DOT":-2.74e-6,"MEAN_MOTION_DDOT":0},{"OBJECT_NAME":"EUTELSAT 117 WEST B (WAAS/PRN 131)","OBJECT_ID":"2016-038B","EPOCH":"2026-03-02T16:58:55.011360","MEAN_MOTION":1.00271396,"ECCENTRICITY":6.8e-6,"INCLINATION":0.0344,"RA_OF_ASC_NODE":10.3703,"ARG_OF_PERICENTER":169.5452,"MEAN_ANOMALY":118.2901,"EPHEMERIS_TYPE":0,"CLASSIFICATION_TYPE":"U","NORAD_CAT_ID":41589,"ELEMENT_SET_NO":999,"REV_AT_EPOCH":3559,"BSTAR":0,"MEAN_MOTION_DOT":-2.8e-7,"MEAN_MOTION_DDOT":0},{"OBJECT_NAME":"SES-15 (WAAS/PRN 133)","OBJECT_ID":"2017-026A","EPOCH":"2026-03-02T16:55:25.346208","MEAN_MOTION":1.00271134,"ECCENTRICITY":7.08e-5,"INCLINATION":0.0247,"RA_OF_ASC_NODE":275.7633,"ARG_OF_PERICENTER":61.025,"MEAN_ANOMALY":308.3599,"EPHEMERIS_TYPE":0,"CLASSIFICATION_TYPE":"U","NORAD_CAT_ID":42709,"ELEMENT_SET_NO":999,"REV_AT_EPOCH":636,"BSTAR":0,"MEAN_MOTION_DOT":4.3e-7,"MEAN_MOTION_DDOT":0},{"OBJECT_NAME":"QZS-2 (QZSS/PRN 194)","OBJECT_ID":"2017-028A","EPOCH":"2026-03-02T19:52:38.716032","MEAN_MOTION":1.0026242,"ECCENTRICITY":0.0745894,"INCLINATION":39.5927,"RA_OF_ASC_NODE":244.7025,"ARG_OF_PERICENTER":270.3157,"MEAN_ANOMALY":85.4192,"EPHEMERIS_TYPE":0,"CLASSIFICATION_TYPE":"U","NORAD_CAT_ID":42738,"ELEMENT_SET_NO":999,"REV_AT_EPOCH":656,"BSTAR":0,"MEAN_MOTION_DOT":-1.75e-6,"MEAN_MOTION_DDOT":0},{"OBJECT_NAME":"QZS-3 (QZSS/PRN 199)","OBJECT_ID":"2017-048A","EPOCH":"2026-03-02T20:16:38.398368","MEAN_MOTION":1.00263762,"ECCENTRICITY":0.0001543,"INCLINATION":0.0752,"RA_OF_ASC_NODE":219.7324,"ARG_OF_PERICENTER":114.6315,"MEAN_ANOMALY":257.3527,"EPHEMERIS_TYPE":0,"CLASSIFICATION_TYPE":"U","NORAD_CAT_ID":42917,"ELEMENT_SET_NO":999,"REV_AT_EPOCH":3119,"BSTAR":0,"MEAN_MOTION_DOT":-3.65e-6,"MEAN_MOTION_DDOT":0},{"OBJECT_NAME":"QZS-4 (QZSS/PRN 195)","OBJECT_ID":"2017-062A","EPOCH":"2026-03-01T21:29:36.502368","MEAN_MOTION":1.00281156,"ECCENTRICITY":0.074901,"INCLINATION":40.1745,"RA_OF_ASC_NODE":344.8554,"ARG_OF_PERICENTER":269.8374,"MEAN_ANOMALY":7.7874,"EPHEMERIS_TYPE":0,"CLASSIFICATION_TYPE":"U","NORAD_CAT_ID":42965,"ELEMENT_SET_NO":999,"REV_AT_EPOCH":3072,"BSTAR":0,"MEAN_MOTION_DOT":-3.39e-6,"MEAN_MOTION_DDOT":0},{"OBJECT_NAME":"BEIDOU-3 G1 (PRN 130)","OBJECT_ID":"2018-085A","EPOCH":"2026-03-02T18:12:17.976960","MEAN_MOTION":1.00269049,"ECCENTRICITY":0.000129,"INCLINATION":2.8063,"RA_OF_ASC_NODE":100.4335,"ARG_OF_PERICENTER":30.1716,"MEAN_ANOMALY":83.0505,"EPHEMERIS_TYPE":0,"CLASSIFICATION_TYPE":"U","NORAD_CAT_ID":43683,"ELEMENT_SET_NO":999,"REV_AT_EPOCH":2699,"BSTAR":0,"MEAN_MOTION_DOT":-2.94e-6,"MEAN_MOTION_DDOT":0},{"OBJECT_NAME":"EUTELSAT 5 WEST B (EGNOS/PRN 121)","OBJECT_ID":"2019-067A","EPOCH":"2026-03-02T17:30:51.948288","MEAN_MOTION":1.00272251,"ECCENTRICITY":0.0003199,"INCLINATION":0.098,"RA_OF_ASC_NODE":308.3073,"ARG_OF_PERICENTER":40.6033,"MEAN_ANOMALY":69.2675,"EPHEMERIS_TYPE":0,"CLASSIFICATION_TYPE":"U","NORAD_CAT_ID":44624,"ELEMENT_SET_NO":999,"REV_AT_EPOCH":2336,"BSTAR":0,"MEAN_MOTION_DOT":-5.9e-7,"MEAN_MOTION_DDOT":0},{"OBJECT_NAME":"BEIDOU-3 G2 (PRN 144)","OBJECT_ID":"2020-017A","EPOCH":"2026-03-02T21:07:24.751776","MEAN_MOTION":1.00271169,"ECCENTRICITY":0.0002703,"INCLINATION":2.6513,"RA_OF_ASC_NODE":45.5391,"ARG_OF_PERICENTER":300.6479,"MEAN_ANOMALY":211.3441,"EPHEMERIS_TYPE":0,"CLASSIFICATION_TYPE":"U","NORAD_CAT_ID":45344,"ELEMENT_SET_NO":999,"REV_AT_EPOCH":2219,"BSTAR":0,"MEAN_MOTION_DOT":-1.55e-6,"MEAN_MOTION_DDOT":0}]
